OBJECT_NAME,OBJECT_ID,EPOCH,MEAN_MOTION,ECCENTRICITY,INCLINATION,RA_OF_ASC_NODE,ARG_OF_PERICENTER,MEAN_ANOMALY,EPHEMERIS_TYPE,CLASSIFICATION_TYPE,NORAD_CAT_ID,ELEMENT_SET_NO,REV_AT_EPOCH,BSTAR,MEAN_MOTION_DOT,MEAN_MOTION_DDOT
NUVIEW BRAVO,2024-252D,2026-06-15T12:39:54.443808,1.00269050,.00018167,0.0665,155.7486,325.7501,249.1694,0,U,62457,999,377,0,-.212E-5,0
THURAYA-4,2025-001A,2026-06-15T00:35:38.687712,1.00272022,.00002529,0.0244,61.2066,208.6331,46.6976,0,U,62483,999,415,0,.144E-5,0
SHIJIAN-25 (SJ-25),2025-002A,2026-06-15T16:11:34.795392,1.00268248,.0052218,5.1098,61.1749,173.3259,39.6557,0,U,62485,999,534,0,-.352E-5,0
TJS-14,2025-017A,2026-06-15T23:24:52.699680,1.00273733,.00009682,0.7851,295.5385,289.7132,48.6045,0,U,62804,999,525,0,.117E-5,0
SPAINSAT NG I,2025-021A,2026-06-15T06:21:20.556000,1.00272968,.00003009,0.0139,329.3913,248.3938,170.1087,0,U,62852,999,396,0,.155E-5,0
QZS-6 (MICHIBIKI-6),2025-023A,2026-06-15T23:21:35.820864,1.00270916,.00017032,0.0509,69.0708,21.7001,254.4014,0,U,62876,999,493,0,-.233E-5,0
ZHONGXING-10R,2025-036A,2026-06-15T23:23:27.594816,1.00272331,.00033913,0.0304,241.5917,258.4851,225.5734,0,U,63075,999,494,0,-.352E-5,0
TJS-15,2025-045A,2026-06-15T18:09:35.080128,1.00271770,.0004653,0.2819,85.5188,296.3695,248.9385,0,U,63157,999,474,0,-.263E-5,0
TIANLIAN 2-04,2025-062A,2026-06-15T20:17:06.281376,1.00271719,.00317274,4.3780,274.4605,10.3477,3.6450,0,U,63361,999,459,0,-.131E-5,0
TJS-16,2025-064A,2026-06-15T17:47:19.813920,1.00271298,.0003346,1.0947,81.4631,288.8625,321.1370,0,U,63397,999,437,0,-.104E-5,0
TJS-17,2025-073A,2026-06-15T15:33:14.522400,1.00271945,.0002069,1.0603,82.7072,295.7661,283.3003,0,U,63524,999,427,0,-.68E-6,0
TIANLIAN 2-05,2025-084A,2026-06-15T23:57:15.337152,1.00269846,.00030861,4.4541,279.8509,146.4636,217.6246,0,U,63662,999,437,0,.128E-5,0
TJS-19,2025-097A,2026-06-15T18:07:08.512032,1.00265867,.0002327,3.2887,317.4231,241.3377,118.2267,0,U,63924,999,412,0,-.274E-5,0
CHINASAT 3B,2025-106A,2026-06-15T18:59:18.860928,1.00270225,.00029044,0.0277,96.0818,28.9177,231.2153,0,U,64062,999,404,0,-.44E-6,0
SXM-10,2025-122A,2026-06-15T00:23:38.718240,1.00271714,.00017158,0.0180,20.5552,338.6402,153.8564,0,U,64290,999,366,0,-.12E-6,0
COSMOS 2589,2025-131A,2026-06-15T18:12:19.920096,1.00272983,.0000171,0.0298,73.2464,36.0835,165.7556,0,U,64467,999,354,0,-.29E-5,0
CHINASAT 9C,2025-132A,2026-06-15T20:35:51.174816,1.00267685,.00025765,0.0166,10.1677,73.1075,222.0256,0,U,64470,999,413,0,0,0
MTG-S1,2025-143A,2026-06-15T07:54:41.857632,1.00271862,.0000988,0.6048,338.5512,10.7068,29.5609,0,U,64723,999,340,0,-.28E-6,0
DROR 1,2025-148A,2026-06-15T16:27:46.792800,1.00271873,.00025287,0.0316,60.3506,327.8886,118.6699,0,U,64784,999,328,0,-.32E-6,0
SHIYAN-29,2025-196A,2026-06-15T01:16:38.720352,1.00285726,.0012806,28.8191,18.5628,177.4924,180.9128,0,U,65486,999,285,0,-.28E-5,0
NUSANTARA LIMA (NUSANTARA 5),2025-205A,2026-06-15T08:27:53.674848,1.00268607,.00001767,0.0174,94.9813,63.4458,345.0370,0,U,65588,999,270,0,-.354E-5,0
TJS-20,2025-238A,2026-06-15T16:55:40.670112,1.00273962,.00045089,5.4727,299.5632,162.6578,118.1170,0,U,66142,999,231,0,.29E-6,0
CMS-03 (GSAT-7R),2025-249B,2026-06-15T20:15:23.577696,1.00269999,.00015301,0.0165,15.7877,65.7457,200.4278,0,U,66311,999,233,0,0,0
VIASAT-3 F2,2025-261A,2026-06-14T14:26:31.299360,1.00271296,.00001368,0.0513,158.2746,130.5402,111.7385,0,U,66454,999,276,0,-.227E-5,0
SHIJIAN-28 (SJ-28),2025-277A,2026-06-15T18:44:50.248896,1.00263197,.00008313,4.5418,272.1582,348.0905,41.7397,0,U,66549,999,214,0,-.355E-5,0
TJS-22,2025-290A,2026-06-15T21:06:56.938752,1.00273405,.00019022,1.5318,286.5325,330.1699,30.6734,0,U,66990,999,201,0,-.5E-7,0
TJS-23,2025-306A,2026-06-15T14:32:55.844160,1.00275156,.00053779,5.5915,297.4958,169.9812,190.2005,0,U,67226,999,187,0,.23E-6,0
FENGYUN 4C,2025-312A,2026-06-15T17:06:54.443232,1.00271142,.00005195,0.0518,146.7003,68.8923,78.1215,0,U,67246,999,176,0,-.321E-5,0
SHIJIAN-29A (SJ-29A),2025-315A,2026-06-15T23:19:38.256384,1.00269611,.00031014,3.3949,95.1369,25.4497,206.7651,0,U,67302,999,160,0,-.69E-6,0
SHIJIAN-29B (SJ-29B),2025-315C,2026-06-15T23:19:38.288352,1.00269384,.00037254,3.3938,95.1296,33.3174,198.9450,0,U,67403,999,167,0,-.69E-6,0
ELEKTRO-L 5,2026-028A,2026-06-15T01:22:31.046592,1.00271134,.00017621,0.2554,310.8802,180.7355,228.4002,0,U,67756,999,123,0,-.92E-6,0
JAM-E JAM 1,2026-028B,2026-06-15T20:03:58.186368,1.00274789,.0001208,0.2627,301.9265,299.0833,358.0379,0,U,67757,999,110,0,.157E-5,0
